BEIDOU-2 IGSO-1 (C06)   
1 36828U 10036A   24174.46153090 -.00000058  00000+0  00000+0 0  9995
2 36828  54.2548 169.5152 0042055 207.1352 168.3419  1.00281003 50947
BEIDOU-2 G4 (C04)       
1 37210U 10057A   24174.55427503 -.00000098  00000+0  00000+0 0  9991
2 37210   1.8574  68.8958 0003256 156.1132  45.8098  1.00270706 50023
BEIDOU-2 IGSO-2 (C07)   
1 37256U 10068A   24173.73721491 -.00000188  00000+0  00000+0 0  9995
2 37256  48.8707 280.7692 0035981 210.2922 149.2199  1.00248682 49512
BEIDOU-2 IGSO-3 (C08)   
1 37384U 11013A   24174.46663802 -.00000175  00000+0  00000+0 0  9996
2 37384  61.3571  47.0599 0026888 174.4921 323.9080  1.00257308 48399
BEIDOU-2 IGSO-4 (C09)   
1 37763U 11038A   24174.45089437  .00000069  00000+0  00000+0 0  9990
2 37763  54.5603 172.1267 0125941 229.0315 126.4414  1.00258179 47377
BEIDOU-2 IGSO-5 (C10)   
1 37948U 11073A   24173.75066780 -.00000156  00000+0  00000+0 0  9990
2 37948  49.0031 280.4559 0100846 220.2744 133.6509  1.00292757 45855
BEIDOU-2 G5 (C05)       
1 38091U 12008A   24174.53412278  .00000071  00000+0  00000+0 0  9998
2 38091   2.0882  70.9292 0005170 273.1429 178.0487  1.00272210 45103
BEIDOU-2 M3 (C11)       
1 38250U 12018A   24173.76537215 -.00000070  00000+0  00000+0 0  9999
2 38250  56.3360 329.1897 0021004 262.1080  97.6439  1.86231238 82437
BEIDOU-2 M4 (C12)       
1 38251U 12018B   24173.69555379 -.00000070  00000+0  00000+0 0  9993
2 38251  56.2430 328.4632 0011905 263.1713  96.6833  1.86231954 82439
BEIDOU-2 M6 (C14)       
1 38775U 12050B   24173.40508296 -.00000030  00000+0  00000+0 0  9991
2 38775  55.9158  87.0221 0013815 340.5066  19.4454  1.86231141 79793
BEIDOU-2 G6 (C02)       
1 38953U 12059A   24174.53917009 -.00000162  00000+0  00000+0 0  9995
2 38953   2.5727  80.4805 0009723 319.3502 149.5534  1.00271418 42643
BEIDOU-3S IGSO-1S (C31) 
1 40549U 15019A   24172.78603368 -.00000157  00000+0  00000+0 0  9997
2 40549  50.5682 304.1505 0038527 192.5493 145.6811  1.00250079 33787
BEIDOU-3S M2S (C58)     
1 40748U 15037A   24173.89574396 -.00000070  00000+0  00000+0 0  9993
2 40748  55.4746 326.8745 0008627 246.7058 113.1931  1.86233170 60619
BEIDOU-3S M1S (C57)     
1 40749U 15037B   24173.62919506 -.00000071  00000+0  00000+0 0  9992
2 40749  55.4777 326.8707 0003147 359.0646   0.9245  1.86232947 60617
BEIDOU-3S IGSO-2S (C56) 
1 40938U 15053A   24174.62476726 -.00000112  00000+0  00000+0 0  9999
2 40938  50.3483 267.3444 0052730 190.5037 133.5681  1.00261127 32081
BEIDOU-2 IGSO-6 (C13)   
1 41434U 16021A   24173.66609712 -.00000156  00000+0  00000+0 0  9991
2 41434  59.1818  45.3021 0047968 222.4160 338.1481  1.00270200 30201
BEIDOU-2 G7 (C03)       
1 41586U 16037A   24174.57806810 -.00000340  00000+0  00000+0 0  9990
2 41586   1.9193  69.7357 0009299   5.9776 154.1851  1.00271966 29524
BEIDOU-3 M1 (C19)       
1 43001U 17069A   24173.17110464 -.00000031  00000+0  00000+0 0  9995
2 43001  56.0658  87.1275 0010567 308.9989  50.9106  1.86231477 45082
BEIDOU-3 M2 (C20)       
1 43002U 17069B   24169.34966748 -.00000046  00000+0  00000+0 0  9990
2 43002  56.0625  87.2902 0009052 332.2012  27.7451  1.86231111 45001
BEIDOU-3 M7 (C27)       
1 43107U 18003A   24173.93132002 -.00000071  00000+0  00000+0 0  9991
2 43107  54.9327 327.4621 0004697  78.4499 281.5932  1.86232480 43842
BEIDOU-3 M8 (C28)       
1 43108U 18003B   24172.79788326 -.00000074  00000+0  00000+0 0  9994
2 43108  54.9265 327.4866 0002704 250.6480 109.3135  1.86230955 43832
BEIDOU-3 M4 (C22)       
1 43207U 18018A   24174.31310231 -.00000023  00000+0  00000+0 0  9990
2 43207  56.0254  87.1783 0006722 359.1898   0.8186  1.86231332 43249
BEIDOU-3 M3 (C21)       
1 43208U 18018B   24172.76882079 -.00000034  00000+0  00000+0 0  9994
2 43208  56.0237  87.2343 0008592 321.9626  37.9782  1.86231298 43218
BEIDOU-3 M9 (C29)       
1 43245U 18029A   24174.06390095 -.00000069  00000+0  00000+0 0  9992
2 43245  54.8161 325.1653 0000602 146.7822 213.2110  1.86232613 42398
BEIDOU-3 M10 (C30)      
1 43246U 18029B   24173.99357591 -.00000070  00000+0  00000+0 0  9990
2 43246  54.8131 325.1953 0003535  22.6119 337.3930  1.86232914 42378
BEIDOU-2 IGSO-7 (C16)   
1 43539U 18057A   24174.40155973 -.00000057  00000+0  00000+0 0  9998
2 43539  55.1442 169.3226 0075525 233.6126 122.8832  1.00251379 21864
BEIDOU-3 M5 (C23)       
1 43581U 18062A   24173.67977343  .00000104  00000+0  00000+0 0  9994
2 43581  54.1322 206.9811 0005356 274.8380  85.1875  1.86228780 40121
BEIDOU-3 M6 (C24)       
1 43582U 18062B   24173.00867446  .00000108  00000+0  00000+0 0  9998
2 43582  54.1319 206.9934 0004189 356.9242   3.1620  1.86229649 40118
BEIDOU-3 M12 (C26)      
1 43602U 18067A   24174.55280715  .00000099  00000+0  00000+0 0  9994
2 43602  54.2225 205.6224 0006655  17.7473 342.3565  1.86231675 39626
BEIDOU-3 M11 (C25)      
1 43603U 18067B   24173.07592175  .00000109  00000+0  00000+0 0  9999
2 43603  54.2197 205.6377 0003668 359.6710   0.4155  1.86231603 39625
BEIDOU-3 M13 (C32)      
1 43622U 18072A   24171.42603834 -.00000042  00000+0  00000+0 0  9995
2 43622  55.9946  86.8052 0007247 309.9083  50.0255  1.86231607 39102
BEIDOU-3 M14 (C33)      
1 43623U 18072B   24173.43931858 -.00000030  00000+0  00000+0 0  9996
2 43623  55.9978  86.7312 0005534 338.9223  21.0604  1.86231530 39135
BEIDOU-3 M16 (C35)      
1 43647U 18078A   24173.06502859 -.00000073  00000+0  00000+0 0  9999
2 43647  54.7128 325.2977 0006985  24.4818 335.5406  1.86232245 38632
BEIDOU-3 M15 (C34)      
1 43648U 18078B   24174.26810320 -.00000069  00000+0  00000+0 0  9993
2 43648  54.7077 325.2590 0004079  40.9204 319.0998  1.86232269 38674
BEIDOU-3 G1 (C59)       
1 43683U 18085A   24174.59308541 -.00000264  00000+0  00000+0 0  9990
2 43683   2.2044 109.3886 0004158 352.3346 163.1017  1.00272038 20797
BEIDOU-3 M17 (C36)      
1 43706U 18093A   24173.88157386  .00000103  00000+0  00000+0 0  9996
2 43706  54.2152 206.9129 0010258 279.7954  80.1746  1.86228404 38034
BEIDOU-3 M18 (C37)      
1 43707U 18093B   24173.20993072  .00000107  00000+0  00000+0 0  9997
2 43707  54.2160 206.9276 0008090 304.4497  55.5621  1.86229914 38019
BEIDOU-3 IGSO-1 (C38)   
1 44204U 19023A   24169.20542142 -.00000226  00000+0  00000+0 0  9990
2 44204  57.6415  45.2233 0018941 209.3642 200.6006  1.00249867 19025
BEIDOU-2 G8 (C01)       
1 44231U 19027A   24174.55535616 -.00000233  00000+0  00000+0 0  9994
2 44231   1.9613  73.9529 0002397 149.5237  32.1788  1.00274176 18818
BEIDOU-3 IGSO-2 (C39)   
1 44337U 19035A   24174.23352597 -.00000070  00000+0  00000+0 0  9999
2 44337  55.1809 165.2240 0035551 205.1189 101.0559  1.00295812 18396
BEIDOU-3 M24 (C46)      
1 44542U 19061A   24173.27949493  .00000107  00000+0  00000+0 0  9996
2 44542  54.4428 207.2204 0007638 342.1567  17.9051  1.86231335 32276
BEIDOU-3 M23 (C45)      
1 44543U 19061B   24174.54084050  .00000099  00000+0  00000+0 0  9997
2 44543  54.4411 207.1468 0005358 320.5204  77.4969  1.86231691 32303
BEIDOU-3 IGSO-3 (C40)   
1 44709U 19073A   24172.73258703 -.00000202  00000+0  00000+0 0  9998
2 44709  56.0437 288.6897 0039205 181.8619 178.1099  1.00248454 17171
BEIDOU-3 M22 (C44)      
1 44793U 19078A   24174.19915694 -.00000069  00000+0  00000+0 0  9998
2 44793  54.5598 325.1900 0005977  33.5926 326.4348  1.86232178 31148
BEIDOU-3 M21 (C43)      
1 44794U 19078B   24173.25503587 -.00000073  00000+0  00000+0 0  9994
2 44794  54.5343 325.1986 0003843  32.4660 327.5469  1.86232669 31134
BEIDOU-3 M19 (C41)      
1 44864U 19090A   24171.60554979 -.00000041  00000+0  00000+0 0  9999
2 44864  55.9288  86.9708 0017900 285.1386 241.7944  1.86231834 30687
BEIDOU-3 M20 (C42)      
1 44865U 19090B   24173.72666730 -.00000028  00000+0  00000+0 0  9999
2 44865  55.9319  86.9334 0015862 298.5659 300.2061  1.86231666 30701
BEIDOU-3 G2 (C60)       
1 45344U 20017A   24174.53829986 -.00000127  00000+0  00000+0 0  9997
2 45344   2.3217  29.8487 0001774 106.2319  48.9392  1.00270609 15990
BEIDOU-3 G3 (C61)       
1 45807U 20040A   24174.57819057 -.00000338  00000+0  00000+0 0  9993
2 45807   0.7858  43.0498 0004777 283.7834 263.1133  1.00268338 14816
BEIDOU-3 G4             
1 56564U 23066A   24174.59354927 -.00000094  00000+0  00000+0 0  9997
2 56564   2.1099 288.2062 0006010 200.8259 155.8900  1.00270120  4128
BEIDOU-3 M25            
1 58654U 23207A   24173.33780437 -.00000032  00000+0  00000+0 0  9998
2 58654  55.1131  86.9255 0003047 310.4394  49.5379  1.86232313  3323
BEIDOU-3 M26            
1 58655U 23207B   24173.67372693 -.00000029  00000+0  00000+0 0  9993
2 58655  55.1154  86.8994 0003338 284.3081  75.6605  1.86231952  3312
